{
  "type": "FeatureCollection",
  "features": [
    {
      "type": "Feature",
      "properties": {
        "norad_id": 30683,
        "name": "FENGYUN 1C DEB",
        "group": "fengyun-1c-debris",
        "lat": 64.63954529798285,
        "lon": -12.488986384609792,
        "alt_km": 952.7826637304661,
        "timestamp": "2025-12-22T05:49:03.777590+00:00",
        "meta_object_name": "FENGYUN 1C DEB",
        "meta_object_id": "1999-025AQR",
        "meta_epoch": "2025-12-21T13:05:37.679136",
        "meta_mean_motion": 14.00415415,
        "meta_eccentricity": 0.0138269,
        "meta_inclination": 99.4268,
        "meta_ra_of_asc_node": 7.3106,
        "meta_arg_of_pericenter": 200.5149,
        "meta_mean_anomaly": 315.8935,
        "meta_ephemeris_type": 0,
        "meta_classification_type": "U",
        "meta_norad_cat_id": 30683,
        "meta_element_set_no": 999,
        "meta_rev_at_epoch": 95674,
        "meta_bstar": 0.00085947,
        "meta_mean_motion_dot": 1.336e-05,
        "meta_mean_motion_ddot": 0,
        "tle_line1": "1 30683U 99025AQR 25355.54557499  .00001336  00000+0  85947-3 0  9991",
        "tle_line2": "2 30683  99.4268   7.3106 0138269 200.5149 315.8935 14.00415415956747"
      },
      "geometry": {
        "type": "Point",
        "coordinates": [
          -12.488986384609792,
          64.63954529798285
        ]
      }
    },
    {
      "type": "Feature",
      "properties": {
        "norad_id": 30684,
        "name": "FENGYUN 1C DEB",
        "group": "fengyun-1c-debris",
        "lat": 8.154527911872119,
        "lon": -141.1240767392732,
        "alt_km": 958.83126996787,
        "timestamp": "2025-12-22T05:49:03.777601+00:00",
        "meta_object_name": "FENGYUN 1C DEB",
        "meta_object_id": "1999-025AQS",
        "meta_epoch": "2025-12-21T00:50:48.741504",
        "meta_mean_motion": 13.66822163,
        "meta_eccentricity": 0.02358167,
        "meta_inclination": 99.5309,
        "meta_ra_of_asc_node": 36.3069,
        "meta_arg_of_pericenter": 248.0087,
        "meta_mean_anomaly": 109.585,
        "meta_ephemeris_type": 0,
        "meta_classification_type": "U",
        "meta_norad_cat_id": 30684,
        "meta_element_set_no": 999,
        "meta_rev_at_epoch": 93742,
        "meta_bstar": 0.00085046597,
        "meta_mean_motion_dot": 8.13e-06,
        "meta_mean_motion_ddot": 0,
        "tle_line1": "1 30684U 99025AQS 25355.03528636  .00000813  00000+0  85047-3 0  9997",
        "tle_line2": "2 30684  99.5309  36.3069 0235816 248.0087 109.5850 13.66822163937420"
      },
      "geometry": {
        "type": "Point",
        "coordinates": [
          -141.1240767392732,
          8.154527911872119
        ]
      }
    },
    {
      "type": "Feature",
      "properties": {
        "norad_id": 30686,
        "name": "FENGYUN 1C DEB",
        "group": "fengyun-1c-debris",
        "lat": 4.049477846966336,
        "lon": 11.865445649900051,
        "alt_km": 639.9614135126867,
        "timestamp": "2025-12-22T05:49:03.777611+00:00",
        "meta_object_name": "FENGYUN 1C DEB",
        "meta_object_id": "1999-025AQU",
        "meta_epoch": "2025-12-21T13:00:43.280640",
        "meta_mean_motion": 14.73959885,
        "meta_eccentricity": 0.0144135,
        "meta_inclination": 99.0324,
        "meta_ra_of_asc_node": 190.4406,
        "meta_arg_of_pericenter": 93.3209,
        "meta_mean_anomaly": 327.3522,
        "meta_ephemeris_type": 0,
        "meta_classification_type": "U",
        "meta_norad_cat_id": 30686,
        "meta_element_set_no": 999,
        "meta_rev_at_epoch": 99731,
        "meta_bstar": 0.00048497112,
        "meta_mean_motion_dot": 3.693e-05,
        "meta_mean_motion_ddot": 0,
        "tle_line1": "1 30686U 99025AQU 25355.54216760  .00003693  00000+0  48497-3 0  9994",
        "tle_line2": "2 30686  99.0324 190.4406 0144135  93.3209 327.3522 14.73959885997312"
      },
      "geometry": {
        "type": "Point",
        "coordinates": [
          11.865445649900051,
          4.049477846966336
        ]
      }
    },
    {
      "type": "Feature",
      "properties": {
        "norad_id": 30688,
        "name": "FENGYUN 1C DEB",
        "group": "fengyun-1c-debris",
        "lat": 17.581056470404196,
        "lon": -107.56247792215562,
        "alt_km": 789.1128985398173,
        "timestamp": "2025-12-22T05:49:03.777621+00:00",
        "meta_object_name": "FENGYUN 1C DEB",
        "meta_object_id": "1999-025AQW",
        "meta_epoch": "2025-12-21T04:10:11.594784",
        "meta_mean_motion": 14.32760741,
        "meta_eccentricity": 0.00157033,
        "meta_inclination": 98.7012,
        "meta_ra_of_asc_node": 68.5835,
        "meta_arg_of_pericenter": 288.9152,
        "meta_mean_anomaly": 124.3843,
        "meta_ephemeris_type": 0,
        "meta_classification_type": "U",
        "meta_norad_cat_id": 30688,
        "meta_element_set_no": 999,
        "meta_rev_at_epoch": 97381,
        "meta_bstar": 0.0010769161,
        "meta_mean_motion_dot": 2.893e-05,
        "meta_mean_motion_ddot": 0,
        "tle_line1": "1 30688U 99025AQW 25355.17374531  .00002893  00000+0  10769-2 0  9997",
        "tle_line2": "2 30688  98.7012  68.5835 0015703 288.9152 124.3843 14.32760741973818"
      },
      "geometry": {
        "type": "Point",
        "coordinates": [
          -107.56247792215562,
          17.581056470404196
        ]
      }
    },
    {
      "type": "Feature",
      "properties": {
        "norad_id": 30689,
        "name": "FENGYUN 1C DEB",
        "group": "fengyun-1c-debris",
        "lat": 17.186911448803095,
        "lon": 164.91784908069292,
        "alt_km": 847.1209151837802,
        "timestamp": "2025-12-22T05:49:03.777632+00:00",
        "meta_object_name": "FENGYUN 1C DEB",
        "meta_object_id": "1999-025AQX",
        "meta_epoch": "2025-12-21T17:59:03.554016",
        "meta_mean_motion": 14.11779705,
        "meta_eccentricity": 0.0111785,
        "meta_inclination": 98.7088,
        "meta_ra_of_asc_node": 341.7218,
        "meta_arg_of_pericenter": 77.9368,
        "meta_mean_anomaly": 98.7626,
        "meta_ephemeris_type": 0,
        "meta_classification_type": "U",
        "meta_norad_cat_id": 30689,
        "meta_element_set_no": 999,
        "meta_rev_at_epoch": 97017,
        "meta_bstar": 0.00029897,
        "meta_mean_motion_dot": 5.36e-06,
        "meta_mean_motion_ddot": 0,
        "tle_line1": "1 30689U 99025AQX 25355.74934669  .00000536  00000+0  29897-3 0  9990",
        "tle_line2": "2 30689  98.7088 341.7218 0111785  77.9368  98.7626 14.11779705970171"
      },
      "geometry": {
        "type": "Point",
        "coordinates": [
          164.91784908069292,
          17.186911448803095
        ]
      }
    },
    {
      "type": "Feature",
      "properties": {
        "norad_id": 30690,
        "name": "FENGYUN 1C DEB",
        "group": "fengyun-1c-debris",
        "lat": -64.54451792859012,
        "lon": 86.87438729238177,
        "alt_km": 966.0684016399855,
        "timestamp": "2025-12-22T05:49:03.777642+00:00",
        "meta_object_name": "FENGYUN 1C DEB",
        "meta_object_id": "1999-025AQY",
        "meta_epoch": "2025-12-21T14:05:15.585216",
        "meta_mean_motion": 14.0236051,
        "meta_eccentricity": 0.0105027,
        "meta_inclination": 99.1595,
        "meta_ra_of_asc_node": 286.0277,
        "meta_arg_of_pericenter": 51.8867,
        "meta_mean_anomaly": 127.4704,
        "meta_ephemeris_type": 0,
        "meta_classification_type": "U",
        "meta_norad_cat_id": 30690,
        "meta_element_set_no": 999,
        "meta_rev_at_epoch": 95831,
        "meta_bstar": 0.0012317,
        "meta_mean_motion_dot": 1.94e-05,
        "meta_mean_motion_ddot": 0,
        "tle_line1": "1 30690U 99025AQY 25355.58698594  .00001940  00000+0  12317-2 0  9996",
        "tle_line2": "2 30690  99.1595 286.0277 0105027  51.8867 127.4704 14.02360510958313"
      },
      "geometry": {
        "type": "Point",
        "coordinates": [
          86.87438729238177,
          -64.54451792859012
        ]
      }
    },
    {
      "type": "Feature",
      "properties": {
        "norad_id": 30691,
        "name": "FENGYUN 1C DEB",
        "group": "fengyun-1c-debris",
        "lat": 18.90616360741409,
        "lon": -169.9026980065863,
        "alt_km": 859.4658818351891,
        "timestamp": "2025-12-22T05:49:03.777652+00:00",
        "meta_object_name": "FENGYUN 1C DEB",
        "meta_object_id": "1999-025AQZ",
        "meta_epoch": "2025-12-21T19:31:23.192832",
        "meta_mean_motion": 13.89457609,
        "meta_eccentricity": 0.0139523,
        "meta_inclination": 98.7443,
        "meta_ra_of_asc_node": 6.6727,
        "meta_arg_of_pericenter": 208.2334,
        "meta_mean_anomaly": 329.2552,
        "meta_ephemeris_type": 0,
        "meta_classification_type": "U",
        "meta_norad_cat_id": 30691,
        "meta_element_set_no": 999,
        "meta_rev_at_epoch": 95242,
        "meta_bstar": 0.00085914,
        "meta_mean_motion_dot": 1.094e-05,
        "meta_mean_motion_ddot": 0,
        "tle_line1": "1 30691U 99025AQZ 25355.81346288  .00001094  00000+0  85914-3 0  9997",
        "tle_line2": "2 30691  98.7443   6.6727 0139523 208.2334 329.2552 13.89457609952421"
      },
      "geometry": {
        "type": "Point",
        "coordinates": [
          -169.9026980065863,
          18.90616360741409
        ]
      }
    }
  ]
}